[{"OBJECT_NAME":"OBJECT G","OBJECT_ID":"2024-205G","EPOCH":"2026-03-09T23:05:54.449664","MEAN_MOTION":15.09392775,"ECCENTRICITY":0.00211709,"INCLINATION":97.4199,"RA_OF_ASC_NODE":141.9686,"ARG_OF_PERICENTER":130.0324,"MEAN_ANOMALY":230.2768,"EPHEMERIS_TYPE":0,"CLASSIFICATION_TYPE":"U","NORAD_CAT_ID":61900,"ELEMENT_SET_NO":999,"REV_AT_EPOCH":7318,"BSTAR":0.00059967322,"MEAN_MOTION_DOT":9.576e-5,"MEAN_MOTION_DDOT":0},{"OBJECT_NAME":"PIESAT-2 12","OBJECT_ID":"2024-241D","EPOCH":"2026-03-07T12:51:59.071104","MEAN_MOTION":15.13473962,"ECCENTRICITY":0.0001617,"INCLINATION":97.5188,"RA_OF_ASC_NODE":15.2831,"ARG_OF_PERICENTER":92.1579,"MEAN_ANOMALY":267.9837,"EPHEMERIS_TYPE":0,"CLASSIFICATION_TYPE":"U","NORAD_CAT_ID":62336,"ELEMENT_SET_NO":999,"REV_AT_EPOCH":6742,"BSTAR":0.00074906088,"MEAN_MOTION_DOT":0.00013349,"MEAN_MOTION_DDOT":0}]
